{
  "type": "FeatureCollection",
  "features": [
    {
      "type": "Feature",
      "properties": {
        "norad_id": 32376,
        "name": "COSMO-SKYMED 2",
        "group": "resource",
        "lat": -59.02618479083784,
        "lon": -23.348434022575542,
        "alt_km": 630.5843339490484,
        "timestamp": "2025-12-14T16:47:40.339566+00:00",
        "meta_object_name": "COSMO-SKYMED 2",
        "meta_object_id": "2007-059A",
        "meta_epoch": "2025-12-14T09:14:04.590240",
        "meta_mean_motion": 14.82169065,
        "meta_eccentricity": 0.0001501,
        "meta_inclination": 97.881,
        "meta_ra_of_asc_node": 169.6838,
        "meta_arg_of_pericenter": 84.039,
        "meta_mean_anomaly": 276.0995,
        "meta_ephemeris_type": 0,
        "meta_classification_type": "U",
        "meta_norad_cat_id": 32376,
        "meta_element_set_no": 999,
        "meta_rev_at_epoch": 97462,
        "meta_bstar": 0.00010312,
        "meta_mean_motion_dot": 7.69e-06,
        "meta_mean_motion_ddot": 0,
        "tle_line1": "1 32376U 07059A   25348.38477535  .00000769  00000+0  10312-3 0  9997",
        "tle_line2": "2 32376  97.8810 169.6838 0001501  84.0390 276.0995 14.82169065974626"
      },
      "geometry": {
        "type": "Point",
        "coordinates": [
          -23.348434022575542,
          -59.02618479083784
        ]
      }
    },
    {
      "type": "Feature",
      "properties": {
        "norad_id": 32382,
        "name": "RADARSAT-2",
        "group": "resource",
        "lat": -1.2909946790042155,
        "lon": 173.0665301749777,
        "alt_km": 794.9871911864702,
        "timestamp": "2025-12-14T16:47:40.339576+00:00",
        "meta_object_name": "RADARSAT-2",
        "meta_object_id": "2007-061A",
        "meta_epoch": "2025-12-14T00:50:10.722048",
        "meta_mean_motion": 14.29982388,
        "meta_eccentricity": 0.00011105,
        "meta_inclination": 98.5804,
        "meta_ra_of_asc_node": 352.6062,
        "meta_arg_of_pericenter": 85.9887,
        "meta_mean_anomaly": 274.1422,
        "meta_ephemeris_type": 0,
        "meta_classification_type": "U",
        "meta_norad_cat_id": 32382,
        "meta_element_set_no": 999,
        "meta_rev_at_epoch": 93949,
        "meta_bstar": 6.6345731e-05,
        "meta_mean_motion_dot": 1.27e-06,
        "meta_mean_motion_ddot": 0,
        "tle_line1": "1 32382U 07061A   25348.03484632  .00000127  00000+0  66346-4 0  9992",
        "tle_line2": "2 32382  98.5804 352.6062 0001110  85.9887 274.1422 14.29982388939496"
      },
      "geometry": {
        "type": "Point",
        "coordinates": [
          173.0665301749777,
          -1.2909946790042155
        ]
      }
    },
    {
      "type": "Feature",
      "properties": {
        "norad_id": 32783,
        "name": "CARTOSAT-2A",
        "group": "resource",
        "lat": -3.300611239357864,
        "lon": 38.914278012872266,
        "alt_km": 627.8821103863556,
        "timestamp": "2025-12-14T16:47:40.339587+00:00",
        "meta_object_name": "CARTOSAT-2A",
        "meta_object_id": "2008-021A",
        "meta_epoch": "2025-12-14T00:34:18.534432",
        "meta_mean_motion": 14.78940095,
        "meta_eccentricity": 0.0011739,
        "meta_inclination": 97.7932,
        "meta_ra_of_asc_node": 37.8069,
        "meta_arg_of_pericenter": 0.6156,
        "meta_mean_anomaly": 359.5068,
        "meta_ephemeris_type": 0,
        "meta_classification_type": "U",
        "meta_norad_cat_id": 32783,
        "meta_element_set_no": 999,
        "meta_rev_at_epoch": 95143,
        "meta_bstar": 0.00015228451,
        "meta_mean_motion_dot": 1.074e-05,
        "meta_mean_motion_ddot": 0,
        "tle_line1": "1 32783U 08021A   25348.02382563  .00001074  00000+0  15228-3 0  9997",
        "tle_line2": "2 32783  97.7932  37.8069 0011739   0.6156 359.5068 14.78940095951439"
      },
      "geometry": {
        "type": "Point",
        "coordinates": [
          38.914278012872266,
          -3.300611239357864
        ]
      }
    },
    {
      "type": "Feature",
      "properties": {
        "norad_id": 33320,
        "name": "HUANJING 1A (HJ-1A)",
        "group": "resource",
        "lat": -71.81500733850152,
        "lon": 132.74981041860067,
        "alt_km": 635.740502142542,
        "timestamp": "2025-12-14T16:47:40.339597+00:00",
        "meta_object_name": "HUANJING 1A (HJ-1A)",
        "meta_object_id": "2008-041A",
        "meta_epoch": "2025-12-13T23:27:58.699872",
        "meta_mean_motion": 14.83401596,
        "meta_eccentricity": 0.00200182,
        "meta_inclination": 97.6542,
        "meta_ra_of_asc_node": 336.2245,
        "meta_arg_of_pericenter": 30.4833,
        "meta_mean_anomaly": 329.7541,
        "meta_ephemeris_type": 0,
        "meta_classification_type": "U",
        "meta_norad_cat_id": 33320,
        "meta_element_set_no": 999,
        "meta_rev_at_epoch": 93094,
        "meta_bstar": 0.0003638844,
        "meta_mean_motion_dot": 2.945e-05,
        "meta_mean_motion_ddot": 0,
        "tle_line1": "1 33320U 08041A   25347.97776273  .00002945  00000+0  36388-3 0  9993",
        "tle_line2": "2 33320  97.6542 336.2245 0020018  30.4833 329.7541 14.83401596930940"
      },
      "geometry": {
        "type": "Point",
        "coordinates": [
          132.74981041860067,
          -71.81500733850152
        ]
      }
    },
    {
      "type": "Feature",
      "properties": {
        "norad_id": 33321,
        "name": "HUANJING 1B (HJ-1B)",
        "group": "resource",
        "lat": 67.74603489566346,
        "lon": 179.75849778331997,
        "alt_km": 593.7552839035052,
        "timestamp": "2025-12-14T16:47:40.339607+00:00",
        "meta_object_name": "HUANJING 1B (HJ-1B)",
        "meta_object_id": "2008-041B",
        "meta_epoch": "2025-12-14T00:06:14.437728",
        "meta_mean_motion": 14.82827488,
        "meta_eccentricity": 0.00381461,
        "meta_inclination": 97.6402,
        "meta_ra_of_asc_node": 339.9437,
        "meta_arg_of_pericenter": 71.7772,
        "meta_mean_anomaly": 288.7588,
        "meta_ephemeris_type": 0,
        "meta_classification_type": "U",
        "meta_norad_cat_id": 33321,
        "meta_element_set_no": 999,
        "meta_rev_at_epoch": 93096,
        "meta_bstar": 0.00029154852,
        "meta_mean_motion_dot": 2.338e-05,
        "meta_mean_motion_ddot": 0,
        "tle_line1": "1 33321U 08041B   25348.00433377  .00002338  00000+0  29155-3 0  9994",
        "tle_line2": "2 33321  97.6402 339.9437 0038146  71.7772 288.7588 14.82827488930968"
      },
      "geometry": {
        "type": "Point",
        "coordinates": [
          179.75849778331997,
          67.74603489566346
        ]
      }
    },
    {
      "type": "Feature",
      "properties": {
        "norad_id": 33331,
        "name": "GEOEYE 1",
        "group": "resource",
        "lat": -29.739310587137748,
        "lon": 64.6376262955256,
        "alt_km": 682.6964186006617,
        "timestamp": "2025-12-14T16:47:40.339617+00:00",
        "meta_object_name": "GEOEYE 1",
        "meta_object_id": "2008-042A",
        "meta_epoch": "2025-12-13T22:53:52.805760",
        "meta_mean_motion": 14.64814755,
        "meta_eccentricity": 0.00027247,
        "meta_inclination": 98.1252,
        "meta_ra_of_asc_node": 59.2197,
        "meta_arg_of_pericenter": 270.5851,
        "meta_mean_anomaly": 89.504,
        "meta_ephemeris_type": 0,
        "meta_classification_type": "U",
        "meta_norad_cat_id": 33331,
        "meta_element_set_no": 999,
        "meta_rev_at_epoch": 92303,
        "meta_bstar": 0.00016539616,
        "meta_mean_motion_dot": 8.35e-06,
        "meta_mean_motion_ddot": 0,
        "tle_line1": "1 33331U 08042A   25347.95408340  .00000835  00000+0  16540-3 0  9995",
        "tle_line2": "2 33331  98.1252  59.2197 0002724 270.5851  89.5040 14.64814755923036"
      },
      "geometry": {
        "type": "Point",
        "coordinates": [
          64.6376262955256,
          -29.739310587137748
        ]
      }
    },
    {
      "type": "Feature",
      "properties": {
        "norad_id": 33396,
        "name": "THEOS",
        "group": "resource",
        "lat": -51.03632187295894,
        "lon": -144.03638734288796,
        "alt_km": 832.5534022283991,
        "timestamp": "2025-12-14T16:47:40.339628+00:00",
        "meta_object_name": "THEOS",
        "meta_object_id": "2008-049A",
        "meta_epoch": "2025-12-14T00:29:15.690336",
        "meta_mean_motion": 14.20096071,
        "meta_eccentricity": 0.00011739,
        "meta_inclination": 98.5866,
        "meta_ra_of_asc_node": 46.0719,
        "meta_arg_of_pericenter": 95.1928,
        "meta_mean_anomaly": 264.9383,
        "meta_ephemeris_type": 0,
        "meta_classification_type": "U",
        "meta_norad_cat_id": 33396,
        "meta_element_set_no": 999,
        "meta_rev_at_epoch": 89168,
        "meta_bstar": 2.6337858e-05,
        "meta_mean_motion_dot": 1.4e-07,
        "meta_mean_motion_ddot": 0,
        "tle_line1": "1 33396U 08049A   25348.02032049  .00000014  00000+0  26338-4 0  9997",
        "tle_line2": "2 33396  98.5866  46.0719 0001173  95.1928 264.9383 14.20096071891688"
      },
      "geometry": {
        "type": "Point",
        "coordinates": [
          -144.03638734288796,
          -51.03632187295894
        ]
      }
    }
  ]
}